TEVEL2-9                
1 63237U 25052AD  26068.70229538  .00018694  00000+0  67240-3 0  9992
2 63237  97.4057 324.3929 0007990 124.2475 235.9522 15.28633834 54816
STARLINK-35868          
1 66579U 25268Y   26068.18552235  .00027892  00000+0  10189-2 0  9997
2 66579  43.0033 349.8208 0003031 249.1192 110.9336 15.27589789 17885
